OBJECT_NAME,OBJECT_ID,EPOCH,MEAN_MOTION,ECCENTRICITY,INCLINATION,RA_OF_ASC_NODE,ARG_OF_PERICENTER,MEAN_ANOMALY,EPHEMERIS_TYPE,CLASSIFICATION_TYPE,NORAD_CAT_ID,ELEMENT_SET_NO,REV_AT_EPOCH,BSTAR,MEAN_MOTION_DOT,MEAN_MOTION_DDOT
COSMO-SKYMED 1,2007-023A,2026-07-08T04:30:42.183936,14.97197626,.0001055,97.8846,21.2215,89.8054,270.3288,0,U,31598,999,3293,.13518E-3,.1503E-4,0
COSMOS 2428,2007-029A,2026-07-07T17:53:14.562816,14.12930752,.000717,70.9381,311.3125,95.5204,264.6735,0,U,31792,999,98105,.10755E-3,.153E-5,0
SL-16 R/B,2007-029B,2026-07-07T16:38:25.281024,14.14851020,.0002185,70.9756,280.1226,258.3678,215.1021,0,U,31793,999,98234,-.63866E-4,-.171E-5,0
KORONAS-FOTON,2009-003A,2026-07-07T22:06:05.023008,15.46174358,.001254,82.4297,150.6238,84.4646,275.8032,0,U,33504,999,96430,.16601E-3,.8207E-4,0
CZ-2C R/B,2011-030B,2026-07-07T21:53:10.375296,14.81521935,.0051258,97.8664,143.9257,320.4403,105.6604,0,U,37731,999,80789,.11682E-3,.881E-5,0
H-2A R/B,2012-025E,2026-07-07T23:04:34.483008,14.95823397,.0042109,98.4844,165.8221,279.5302,80.1159,0,U,38341,999,76619,.16876E-3,.1846E-4,0
SHIJIAN-16 (SJ-16),2013-057A,2026-07-08T05:14:51.792000,14.92658757,.0016019,74.9739,316.8482,181.5802,178.5338,0,U,39358,999,68948,.12964E-3,.131E-4,0
SL-4 R/B,2014-021B,2026-07-08T04:32:06.847296,15.42381949,.0090164,51.6052,107.8513,182.7463,177.3039,0,U,39679,999,67485,.15161E-3,.7242E-4,0
ALOS-2,2014-029A,2026-07-08T05:46:29.852256,14.79473219,.0001609,97.9222,286.1036,92.8546,267.2850,0,U,39766,999,65469,.18131E-3,.1303E-4,0
YAOGAN-29,2015-069A,2026-07-08T05:27:56.193408,14.83102009,.0001268,98.0021,217.8928,20.5778,339.5486,0,U,41038,999,57374,.34152E-4,.224E-5,0
ASTRO-H (HITOMI),2016-012A,2026-07-07T10:51:38.396736,15.10610268,.00095371,30.9999,303.3012,97.0215,263.1509,0,U,41337,999,57035,.12121116E-3,.2149E-4,0
HXMT (HUIYAN),2017-034A,2026-07-08T02:48:01.696320,15.18644570,.0032747,43.0144,66.4861,277.6465,82.0665,0,U,42758,999,50084,.14433E-3,.284E-4,0
SAOCOM 1A,2018-076A,2026-07-08T04:47:00.117888,14.82162891,.0001485,97.8892,15.6423,81.2668,278.8713,0,U,43641,999,41921,.81505E-5,.13E-6,0
H-2A R/B,2018-084L,2026-07-08T02:30:43.672896,15.46001982,.0020916,98.8545,72.5760,326.8722,33.1211,0,U,43682,999,42435,.27742E-3,.13531E-3,0
SAOCOM 1B,2020-059A,2026-07-08T03:54:46.590336,14.82155996,.000161,97.8897,14.7025,80.0962,280.0432,0,U,46265,999,31659,.51915E-4,.361E-5,0
CSS (TIANHE),2021-035A,2026-07-07T21:46:53.524416,15.58032789,.0002951,41.4677,196.0018,276.1946,83.8555,0,U,48274,999,29640,.92847E-4,.6844E-4,0
COSMOS 2550,2021-056A,2026-07-08T02:04:16.097952,15.33775898,.0008413,67.1431,36.6876,272.3397,87.6794,0,U,48865,999,28192,.2872E-4,.752E-5,0
CZ-2C R/B,2022-058K,2026-07-08T00:36:15.609024,15.63415474,.0030878,50.1858,54.9707,352.9832,7.0706,0,U,52794,999,22890,.28937E-3,.27467E-3,0
CZ-2C R/B,2022-132E,2026-07-07T22:58:39.926784,15.74235074,.0010949,97.2902,196.9464,12.9431,347.2112,0,U,54039,999,20921,.30648E-3,.44126E-3,0
GSLV R/B,2022-138AN,2026-07-07T21:39:35.438400,14.97359713,.0024118,87.3814,126.0279,76.0385,284.3526,0,U,54149,999,20191,.19708E-3,.233E-4,0
XRISM,2023-137A,2026-07-08T04:13:08.620608,15.12639310,.0007817,31.0012,223.6286,176.0268,184.0434,0,U,57800,999,15604,.11657E-3,.2187E-4,0
ACS3,2024-077B,2026-07-07T17:23:46.400640,13.95302657,.0114374,97.1724,102.9526,45.1159,315.9225,0,U,59588,999,11090,.20273E-1,.29045E-3,0
SPACEMOBILE-003,2024-163A,2026-07-07T14:09:21.655008,15.20789545,.0005935,52.9711,215.6104,173.0520,187.0558,0,U,61045,999,10087,.51476E-4,.822E-5,0
SPACEMOBILE-005,2024-163B,2026-07-08T02:22:35.837760,15.20766204,.000844,52.9800,213.2155,168.0296,192.0901,0,U,61046,999,10094,.20285E-3,.4202E-4,0
SPACEMOBILE-001,2024-163C,2026-07-07T12:08:45.261888,15.20810880,.0007752,52.9752,215.6585,171.0836,189.0297,0,U,61047,999,10085,.71651E-4,.1273E-4,0
SPACEMOBILE-002,2024-163D,2026-07-07T13:20:23.582400,15.20854546,.000733,52.9752,215.4702,175.4334,184.6729,0,U,61048,999,10086,.1263E-3,.2498E-4,0
SPACEMOBILE-004,2024-163E,2026-07-06T11:41:01.713696,15.20801145,.0007073,52.9667,220.1743,196.8401,163.2360,0,U,61049,999,10070,.51660541E-3,.11231E-3,0
CZ-8A R/B,2025-231K,2026-07-07T09:15:05.967072,14.30160619,.01165192,50.0052,313.3842,295.1128,63.7735,0,U,66004,999,3783,.59463867E-4,.3E-7,0
SZ-21 MODULE,2025-246C,2026-07-08T01:07:13.756800,15.78267461,.0006535,41.4707,177.2327,170.4031,189.6940,0,U,66515,999,3703,.19552E-3,.34454E-3,0
SPACEMOBILE-006,2025-309A,2026-07-08T04:03:30.388608,15.18644437,.0010631,52.9947,235.5228,192.2291,167.8446,0,U,67232,999,2978,.24444E-4,.19E-5,0
