COSMO-SKYMED 1          
1 31598U 07023A   26189.18798824  .00001503  00000+0  13518-3 0  9990
2 31598  97.8846  21.2215 0001055  89.8054 270.3288 14.97197626 32937
COSMOS 2428             
1 31792U 07029A   26188.74530744  .00000153  00000+0  10755-3 0  9998
2 31792  70.9381 311.3125 0007170  95.5204 264.6735 14.12930752981058
SL-16 R/B               
1 31793U 07029B   26188.69334816 -.00000171  00000+0 -63866-4 0  9999
2 31793  70.9756 280.1226 0002185 258.3678 215.1021 14.14851020982349
KORONAS-FOTON           
1 33504U 09003A   26188.92089147  .00008207  00000+0  16601-3 0  9995
2 33504  82.4297 150.6238 0012540  84.4646 275.8032 15.46174358964301
CZ-2C R/B               
1 37731U 11030B   26188.91192564  .00000881  00000+0  11682-3 0  9995
2 37731  97.8664 143.9257 0051258 320.4403 105.6604 14.81521935807894
H-2A R/B                
1 38341U 12025E   26188.96151022  .00001846  00000+0  16876-3 0  9999
2 38341  98.4844 165.8221 0042109 279.5302  80.1159 14.95823397766191
SHIJIAN-16 (SJ-16)      
1 39358U 13057A   26189.21865500  .00001310  00000+0  12964-3 0  9996
2 39358  74.9739 316.8482 0016019 181.5802 178.5338 14.92658757689487
SL-4 R/B                
1 39679U 14021B   26189.18896814  .00007242  00000+0  15161-3 0  9994
2 39679  51.6052 107.8513 0090164 182.7463 177.3039 15.42381949674857
ALOS-2                  
1 39766U 14029A   26189.24062329  .00001303  00000+0  18131-3 0  9994
2 39766  97.9222 286.1036 0001609  92.8546 267.2850 14.79473219654697
YAOGAN-29               
1 41038U 15069A   26189.22773372  .00000224  00000+0  34152-4 0  9992
2 41038  98.0021 217.8928 0001268  20.5778 339.5486 14.83102009573743
ASTRO-H (HITOMI)        
1 41337U 16012A   26188.45252774  .00002149  00000+0  12121-3 0  9994
2 41337  30.9999 303.3012 0009537  97.0215 263.1509 15.10610268570355
HXMT (HUIYAN)           
1 42758U 17034A   26189.11668630  .00002840  00000+0  14433-3 0  9999
2 42758  43.0144  66.4861 0032747 277.6465  82.0665 15.18644570500840
SAOCOM 1A               
1 43641U 18076A   26189.19930692  .00000013  00000+0  81505-5 0  9992
2 43641  97.8892  15.6423 0001485  81.2668 278.8713 14.82162891419218
H-2A R/B                
1 43682U 18084L   26189.10467214  .00013531  00000+0  27742-3 0  9992
2 43682  98.8545  72.5760 0020916 326.8722  33.1211 15.46001982424354
SAOCOM 1B               
1 46265U 20059A   26189.16303924  .00000361  00000+0  51915-4 0  9997
2 46265  97.8897  14.7025 0001610  80.0962 280.0432 14.82155996316598
CSS (TIANHE)            
1 48274U 21035A   26188.90756394  .00006844  00000+0  92847-4 0  9999
2 48274  41.4677 196.0018 0002951 276.1946  83.8555 15.58032789296406
COSMOS 2550             
1 48865U 21056A   26189.08629743  .00000752  00000+0  28720-4 0  9996
2 48865  67.1431  36.6876 0008413 272.3397  87.6794 15.33775898281929
CZ-2C R/B               
1 52794U 22058K   26189.02518066  .00027467  00000+0  28937-3 0  9995
2 52794  50.1858  54.9707 0030878 352.9832   7.0706 15.63415474228907
CZ-2C R/B               
1 54039U 22132E   26188.95740656  .00044126  00000+0  30648-3 0  9998
2 54039  97.2902 196.9464 0010949  12.9431 347.2112 15.74235074209216
GSLV R/B                
1 54149U 22138AN  26188.90249350  .00002330  00000+0  19708-3 0  9991
2 54149  87.3814 126.0279 0024118  76.0385 284.3526 14.97359713201910
XRISM                   
1 57800U 23137A   26189.17579422  .00002187  00000+0  11657-3 0  9999
2 57800  31.0012 223.6286 0007817 176.0268 184.0434 15.12639310156042
ACS3                    
1 59588U 24077B   26188.72484260  .00029045  00000+0  20273-1 0  9997
2 59588  97.1724 102.9526 0114374  45.1159 315.9225 13.95302657110906
SPACEMOBILE-003         
1 61045U 24163A   26188.58983397  .00000822  00000+0  51476-4 0  9997
2 61045  52.9711 215.6104 0005935 173.0520 187.0558 15.20789545100878
SPACEMOBILE-005         
1 61046U 24163B   26189.09902590  .00004202  00000+0  20285-3 0  9990
2 61046  52.9800 213.2155 0008440 168.0296 192.0901 15.20766204100949
SPACEMOBILE-001         
1 61047U 24163C   26188.50607942  .00001273  00000+0  71651-4 0  9998
2 61047  52.9752 215.6585 0007752 171.0836 189.0297 15.20810880100852
SPACEMOBILE-002         
1 61048U 24163D   26188.55582850  .00002498  00000+0  12630-3 0  9995
2 61048  52.9752 215.4702 0007330 175.4334 184.6729 15.20854546100864
SPACEMOBILE-004         
1 61049U 24163E   26187.48682539  .00011231  00000+0  51661-3 0  9994
2 61049  52.9667 220.1743 0007073 196.8401 163.2360 15.20801145100708
CZ-8A R/B               
1 66004U 25231K   26188.38548573  .00000003  00000+0  59464-4 0  9991
2 66004  50.0052 313.3842 0116519 295.1128  63.7735 14.30160619 37838
SZ-21 MODULE            
1 66515U 25246C   26189.04668700  .00034454  00000+0  19552-3 0  9993
2 66515  41.4707 177.2327 0006535 170.4031 189.6940 15.78267461 37039
SPACEMOBILE-006         
1 67232U 25309A   26189.16910172  .00000190  00000+0  24444-4 0  9993
2 67232  52.9947 235.5228 0010631 192.2291 167.8446 15.18644437 29787
